[{"OBJECT_NAME":"IRIDIUM 161","OBJECT_ID":"2018-047C","EPOCH":"2026-03-09T16:18:06.514848","MEAN_MOTION":14.43273444,"ECCENTRICITY":0.00024982,"INCLINATION":86.4503,"RA_OF_ASC_NODE":130.0875,"ARG_OF_PERICENTER":89.1489,"MEAN_ANOMALY":270.9998,"EPHEMERIS_TYPE":0,"CLASSIFICATION_TYPE":"U","NORAD_CAT_ID":43478,"ELEMENT_SET_NO":999,"REV_AT_EPOCH":41078,"BSTAR":3.7950736e-5,"MEAN_MOTION_DOT":1.48e-6,"MEAN_MOTION_DDOT":0},{"OBJECT_NAME":"DELTA 1 DEB","OBJECT_ID":"1975-004AR","EPOCH":"2026-03-09T21:44:45.829536","MEAN_MOTION":14.47365038,"ECCENTRICITY":0.00630591,"INCLINATION":98.6728,"RA_OF_ASC_NODE":40.9686,"ARG_OF_PERICENTER":4.3244,"MEAN_ANOMALY":355.848,"EPHEMERIS_TYPE":0,"CLASSIFICATION_TYPE":"U","NORAD_CAT_ID":8959,"ELEMENT_SET_NO":999,"REV_AT_EPOCH":62814,"BSTAR":0.00028485672,"MEAN_MOTION_DOT":1.021e-5,"MEAN_MOTION_DDOT":0}]
